{"type": "FeatureCollection", "features": [ {"type": "Feature", "properties": {"norad_id": 41836, "name": "HIMAWARI-9", "group": "weather", "lat": -0.001921096114859947, "lon": 160.8664411318519, "alt_km": 35794.97577734864, "timestamp": "2025-12-18T19:29:52.187070+00:00", "meta": {"OBJECT_NAME": "HIMAWARI-9", "OBJECT_ID": "2016-064A", "EPOCH": "2025-12-18T01:03:38.637216", "MEAN_MOTION": 1.00269265, "ECCENTRICITY": 0.00019393, "INCLINATION": 0.0207, "RA_OF_ASC_NODE": 333.1202, "ARG_OF_PERICENTER": 2.5389, "MEAN_ANOMALY": 267.9145, "EPHEMERIS_TYPE": 0, "CLASSIFICATION_TYPE": "U", "NORAD_CAT_ID": 41836, "ELEMENT_SET_NO": 999, "REV_AT_EPOCH": 3339, "BSTAR": 0, "MEAN_MOTION_DOT": 0, "MEAN_MOTION_DDOT": 0}, "tle": {"line1": "1 41836U 16064A   25352.04419719  .00000000  00000+0  00000+0 0  9999", "line2": "2 41836   0.0207 333.1202 0001939   2.5389 267.9145  1.00269265 33399"}}, "geometry": {"type": "Point", "coordinates": [160.8664411318519, -0.001921096114859947]}}, {"type": "Feature", "properties": {"norad_id": 41866, "name": "GOES 16", "group": "weather", "lat": -0.01869113225806799, "lon": -84.54004579640106, "alt_km": 35773.28905496457, "timestamp": "2025-12-18T19:29:52.187086+00:00", "meta": {"OBJECT_NAME": "GOES 16", "OBJECT_ID": "2016-071A", "EPOCH": "2025-12-18T05:57:48.202848", "MEAN_MOTION": 1.0027223, "ECCENTRICITY": 0.00030412, "INCLINATION": 0.07, "RA_OF_ASC_NODE": 104.7242, "ARG_OF_PERICENTER": 160.2209, "MEAN_ANOMALY": 166.9463, "EPHEMERIS_TYPE": 0, "CLASSIFICATION_TYPE": "U", "NORAD_CAT_ID": 41866, "ELEMENT_SET_NO": 999, "REV_AT_EPOCH": 3328, "BSTAR": 0, "MEAN_MOTION_DOT": -6.6e-07, "MEAN_MOTION_DDOT": 0}, "tle": {"line1": "1 41866U 16071A   25352.24847457 -.00000066  00000+0  00000+0 0  9999", "line2": "2 41866   0.0700 104.7242 0003041 160.2209 166.9463  1.00272230 33280"}}, "geometry": {"type": "Point", "coordinates": [-84.54004579640106, -0.01869113225806799]}}, {"type": "Feature", "properties": {"norad_id": 41882, "name": "FENGYUN 4A", "group": "weather", "lat": 1.651058617849725, "lon": 143.82550682779242, "alt_km": 35784.56844328918, "timestamp": "2025-12-18T19:29:52.187100+00:00", "meta": {"OBJECT_NAME": "FENGYUN 4A", "OBJECT_ID": "2016-077A", "EPOCH": "2025-12-18T07:02:08.890944", "MEAN_MOTION": 1.0026727, "ECCENTRICITY": 0.00045213, "INCLINATION": 1.863, "RA_OF_ASC_NODE": 82.3386, "ARG_OF_PERICENTER": 143.2457, "MEAN_ANOMALY": 90.8801, "EPHEMERIS_TYPE": 0, "CLASSIFICATION_TYPE": "U", "NORAD_CAT_ID": 41882, "ELEMENT_SET_NO": 999, "REV_AT_EPOCH": 3311, "BSTAR": 0, "MEAN_MOTION_DOT": -3.33e-06, "MEAN_MOTION_DDOT": 0}, "tle": {"line1": "1 41882U 16077A   25352.29315846 -.00000333  00000+0  00000+0 0  9997", "line2": "2 41882   1.8630  82.3386 0004521 143.2457  90.8801  1.00267270 33110"}}, "geometry": {"type": "Point", "coordinates": [143.82550682779242, 1.651058617849725]}}, {"type": "Feature", "properties": {"norad_id": 41884, "name": "CYGFM05", "group": "weather", "lat": 28.231242661114777, "lon": 57.6707407475944, "alt_km": 424.89046956174843, "timestamp": "2025-12-18T19:29:52.187111+00:00", "meta": {"OBJECT_NAME": "CYGFM05", "OBJECT_ID": "2016-078A", "EPOCH": "2025-12-18T05:19:36.403968", "MEAN_MOTION": 15.47836389, "ECCENTRICITY": 0.00106938, "INCLINATION": 34.9607, "RA_OF_ASC_NODE": 11.315, "ARG_OF_PERICENTER": 231.9861, "MEAN_ANOMALY": 127.9895, "EPHEMERIS_TYPE": 0, "CLASSIFICATION_TYPE": "U", "NORAD_CAT_ID": 41884, "ELEMENT_SET_NO": 999, "REV_AT_EPOCH": 50061, "BSTAR": 0.00032067776, "MEAN_MOTION_DOT": 0.00017206, "MEAN_MOTION_DDOT": 0}, "tle": {"line1": "1 41884U 16078A   25352.22194912  .00017206  00000+0  32068-3 0  9991", "line2": "2 41884  34.9607  11.3150 0010693 231.9861 127.9895 15.47836389500613"}}, "geometry": {"type": "Point", "coordinates": [57.6707407475944, 28.231242661114777]}}, {"type": "Feature", "properties": {"norad_id": 41885, "name": "CYGFM04", "group": "weather", "lat": -2.729828985027453, "lon": -21.859755942472127, "alt_km": 414.47062366470436, "timestamp": "2025-12-18T19:29:52.187122+00:00", "meta": {"OBJECT_NAME": "CYGFM04", "OBJECT_ID": "2016-078B", "EPOCH": "2025-12-18T07:09:24.953472", "MEAN_MOTION": 15.50589221, "ECCENTRICITY": 0.00097928, "INCLINATION": 34.9357, "RA_OF_ASC_NODE": 345.4318, "ARG_OF_PERICENTER": 257.8663, "MEAN_ANOMALY": 102.0962, "EPHEMERIS_TYPE": 0, "CLASSIFICATION_TYPE": "U", "NORAD_CAT_ID": 41885, "ELEMENT_SET_NO": 999, "REV_AT_EPOCH": 50080, "BSTAR": 0.00034527159, "MEAN_MOTION_DOT": 0.00020427, "MEAN_MOTION_DDOT": 0}, "tle": {"line1": "1 41885U 16078B   25352.29820548  .00020427  00000+0  34527-3 0  9991", "line2": "2 41885  34.9357 345.4318 0009792 257.8663 102.0962 15.50589221500802"}}, "geometry": {"type": "Point", "coordinates": [-21.859755942472127, -2.729828985027453]}}, {"type": "Feature", "properties": {"norad_id": 41886, "name": "CYGFM02", "group": "weather", "lat": 20.984785049708005, "lon": 13.623214666716299, "alt_km": 412.2395035485897, "timestamp": "2025-12-18T19:29:52.187133+00:00", "meta": {"OBJECT_NAME": "CYGFM02", "OBJECT_ID": "2016-078C", "EPOCH": "2025-12-18T06:58:53.234688", "MEAN_MOTION": 15.51985421, "ECCENTRICITY": 0.00114494, "INCLINATION": 34.9445, "RA_OF_ASC_NODE": 343.7336, "ARG_OF_PERICENTER": 257.835, "MEAN_ANOMALY": 102.109, "EPHEMERIS_TYPE": 0, "CLASSIFICATION_TYPE": "U", "NORAD_CAT_ID": 41886, "ELEMENT_SET_NO": 999, "REV_AT_EPOCH": 50093, "BSTAR": 0.00035218126, "MEAN_MOTION_DOT": 0.00021929, "MEAN_MOTION_DDOT": 0}, "tle": {"line1": "1 41886U 16078C   25352.29089392  .00021929  00000+0  35218-3 0  9992", "line2": "2 41886  34.9445 343.7336 0011449 257.8350 102.1090 15.51985421500937"}}, "geometry": {"type": "Point", "coordinates": [13.623214666716299, 20.984785049708005]}}, {"type": "Feature", "properties": {"norad_id": 41887, "name": "CYGFM01", "group": "weather", "lat": 31.886632331765977, "lon": 126.76727996220329, "alt_km": 418.5247142469234, "timestamp": "2025-12-18T19:29:52.187143+00:00", "meta": {"OBJECT_NAME": "CYGFM01", "OBJECT_ID": "2016-078D", "EPOCH": "2025-12-18T06:38:03.852672", "MEAN_MOTION": 15.4842335, "ECCENTRICITY": 0.00103029, "INCLINATION": 34.9437, "RA_OF_ASC_NODE": 13.2696, "ARG_OF_PERICENTER": 224.902, "MEAN_ANOMALY": 135.0869, "EPHEMERIS_TYPE": 0, "CLASSIFICATION_TYPE": "U", "NORAD_CAT_ID": 41887, "ELEMENT_SET_NO": 999, "REV_AT_EPOCH": 50056, "BSTAR": 0.00032360495, "MEAN_MOTION_DOT": 0.00017724, "MEAN_MOTION_DDOT": 0}, "tle": {"line1": "1 41887U 16078D   25352.27643348  .00017724  00000+0  32360-3 0  9991", "line2": "2 41887  34.9437  13.2696 0010302 224.9020 135.0869 15.48423350500565"}}, "geometry": {"type": "Point", "coordinates": [126.76727996220329, 31.886632331765977]}}, {"type": "Feature", "properties": {"norad_id": 41888, "name": "CYGFM08", "group": "weather", "lat": -4.4055429965051465, "lon": 179.01807324718823, "alt_km": 413.7135356457702, "timestamp": "2025-12-18T19:29:52.187154+00:00", "meta": {"OBJECT_NAME": "CYGFM08", "OBJECT_ID": "2016-078E", "EPOCH": "2025-12-18T07:52:06.055968", "MEAN_MOTION": 15.49644316, "ECCENTRICITY": 0.00119901, "INCLINATION": 34.9468, "RA_OF_ASC_NODE": 355.8593, "ARG_OF_PERICENTER": 248.1294, "MEAN_ANOMALY": 111.8153, "EPHEMERIS_TYPE": 0, "CLASSIFICATION_TYPE": "U", "NORAD_CAT_ID": 41888, "ELEMENT_SET_NO": 999, "REV_AT_EPOCH": 50080, "BSTAR": 0.00034164121, "MEAN_MOTION_DOT": 0.00019559, "MEAN_MOTION_DDOT": 0}, "tle": {"line1": "1 41888U 16078E   25352.32784787  .00019559  00000+0  34164-3 0  9993", "line2": "2 41888  34.9468 355.8593 0011990 248.1294 111.8153 15.49644316500809"}}, "geometry": {"type": "Point", "coordinates": [179.01807324718823, -4.4055429965051465]}}, {"type": "Feature", "properties": {"norad_id": 41890, "name": "CYGFM07", "group": "weather", "lat": -4.723049266085415, "lon": 168.42503364143639, "alt_km": 414.2568604001008, "timestamp": "2025-12-18T19:29:52.187165+00:00", "meta": {"OBJECT_NAME": "CYGFM07", "OBJECT_ID": "2016-078G", "EPOCH": "2025-12-18T06:19:29.744544", "MEAN_MOTION": 15.50229763, "ECCENTRICITY": 0.00101246, "INCLINATION": 34.9484, "RA_OF_ASC_NODE": 345.2306, "ARG_OF_PERICENTER": 262.8816, "MEAN_ANOMALY": 97.0755, "EPHEMERIS_TYPE": 0, "CLASSIFICATION_TYPE": "U", "NORAD_CAT_ID": 41890, "ELEMENT_SET_NO": 999, "REV_AT_EPOCH": 50081, "BSTAR": 0.00034164034, "MEAN_MOTION_DOT": 0.00019955, "MEAN_MOTION_DDOT": 0}, "tle": {"line1": "1 41890U 16078G   25352.26353871  .00019955  00000+0  34164-3 0  9995", "line2": "2 41890  34.9484 345.2306 0010124 262.8816  97.0755 15.50229763500817"}}, "geometry": {"type": "Point", "coordinates": [168.42503364143639, -4.723049266085415]}}, {"type": "Feature", "properties": {"norad_id": 41891, "name": "CYGFM03", "group": "weather", "lat": 11.744928652211712, "lon": 0.8756786402419101, "alt_km": 417.2751949223757, "timestamp": "2025-12-18T19:29:52.187176+00:00", "meta": {"OBJECT_NAME": "CYGFM03", "OBJECT_ID": "2016-078H", "EPOCH": "2025-12-18T07:02:35.840832", "MEAN_MOTION": 15.50128149, "ECCENTRICITY": 0.00096755, "INCLINATION": 34.9439, "RA_OF_ASC_NODE": 346.956, "ARG_OF_PERICENTER": 251.1061, "MEAN_ANOMALY": 108.8613, "EPHEMERIS_TYPE": 0, "CLASSIFICATION_TYPE": "U", "NORAD_CAT_ID": 41891, "ELEMENT_SET_NO": 999, "REV_AT_EPOCH": 50079, "BSTAR": 0.00034192757, "MEAN_MOTION_DOT": 0.00019896, "MEAN_MOTION_DDOT": 0}, "tle": {"line1": "1 41891U 16078H   25352.29347038  .00019896  00000+0  34193-3 0  9993", "line2": "2 41891  34.9439 346.9560 0009675 251.1061 108.8613 15.50128149500797"}}, "geometry": {"type": "Point", "coordinates": [0.8756786402419101, 11.744928652211712]}}]}